{"type": "FeatureCollection", "features": [ {"type": "Feature", "properties": {"norad_id": 66619, "name": "STARLINK-35951", "group": "last-30-days", "lat": -11.159313100361866, "lon": -177.48851238440776, "alt_km": 409.7929988487158, "timestamp": "2025-12-11T22:43:46.024405+00:00", "meta": {"OBJECT_NAME": "STARLINK-35951", "OBJECT_ID": "2025-271C", "EPOCH": "2025-12-11T14:00:01.999872", "MEAN_MOTION": 15.5490264, "ECCENTRICITY": 0.00010109, "INCLINATION": 53.1601, "RA_OF_ASC_NODE": 192.7685, "ARG_OF_PERICENTER": 108.722, "MEAN_ANOMALY": 1.3979, "EPHEMERIS_TYPE": 0, "CLASSIFICATION_TYPE": "U", "NORAD_CAT_ID": 66619, "ELEMENT_SET_NO": 999, "REV_AT_EPOCH": 405, "BSTAR": -0.033365809, "MEAN_MOTION_DOT": -0.02027247, "MEAN_MOTION_DDOT": 0}, "tle": {"line1": "1 66619U 25271C   25345.58335648 -.02027247  00000+0 -33366-1 0  9993", "line2": "2 66619  53.1601 192.7685 0001010 108.7220   1.3979 15.54902640  4050"}}, "geometry": {"type": "Point", "coordinates": [-177.48851238440776, -11.159313100361866]}}, {"type": "Feature", "properties": {"norad_id": 66620, "name": "STARLINK-35936", "group": "last-30-days", "lat": -15.682892755265792, "lon": 178.87844253939747, "alt_km": 410.0707865367276, "timestamp": "2025-12-11T22:43:46.024415+00:00", "meta": {"OBJECT_NAME": "STARLINK-35936", "OBJECT_ID": "2025-271D", "EPOCH": "2025-12-11T14:00:01.999872", "MEAN_MOTION": 15.5490174, "ECCENTRICITY": 8.815e-05, "INCLINATION": 53.16, "RA_OF_ASC_NODE": 192.7819, "ARG_OF_PERICENTER": 100.6675, "MEAN_ANOMALY": 3.7033, "EPHEMERIS_TYPE": 0, "CLASSIFICATION_TYPE": "U", "NORAD_CAT_ID": 66620, "ELEMENT_SET_NO": 999, "REV_AT_EPOCH": 405, "BSTAR": -0.033353909, "MEAN_MOTION_DOT": -0.02026465, "MEAN_MOTION_DDOT": 0}, "tle": {"line1": "1 66620U 25271D   25345.58335648 -.02026465  00000+0 -33354-1 0  9993", "line2": "2 66620  53.1600 192.7819 0000881 100.6675   3.7033 15.54901740  4057"}}, "geometry": {"type": "Point", "coordinates": [178.87844253939747, -15.682892755265792]}}, {"type": "Feature", "properties": {"norad_id": 66621, "name": "STARLINK-35847", "group": "last-30-days", "lat": 27.47755436509337, "lon": -146.13702454801515, "alt_km": 403.51856973064696, "timestamp": "2025-12-11T22:43:46.024426+00:00", "meta": {"OBJECT_NAME": "STARLINK-35847", "OBJECT_ID": "2025-271E", "EPOCH": "2025-12-11T14:00:01.999872", "MEAN_MOTION": 15.54901197, "ECCENTRICITY": 0.00012877, "INCLINATION": 53.1597, "RA_OF_ASC_NODE": 192.666, "ARG_OF_PERICENTER": 93.449, "MEAN_ANOMALY": 65.8697, "EPHEMERIS_TYPE": 0, "CLASSIFICATION_TYPE": "U", "NORAD_CAT_ID": 66621, "ELEMENT_SET_NO": 999, "REV_AT_EPOCH": 405, "BSTAR": -0.033401726, "MEAN_MOTION_DOT": -0.02029267, "MEAN_MOTION_DDOT": 0}, "tle": {"line1": "1 66621U 25271E   25345.58335648 -.02029267  00000+0 -33402-1 0  9991", "line2": "2 66621  53.1597 192.6660 0001287  93.4490  65.8697 15.54901197  4052"}}, "geometry": {"type": "Point", "coordinates": [-146.13702454801515, 27.47755436509337]}}, {"type": "Feature", "properties": {"norad_id": 66622, "name": "STARLINK-35950", "group": "last-30-days", "lat": -9.641202389608022, "lon": -176.30334410810545, "alt_km": 409.3903034555042, "timestamp": "2025-12-11T22:43:46.024435+00:00", "meta": {"OBJECT_NAME": "STARLINK-35950", "OBJECT_ID": "2025-271F", "EPOCH": "2025-12-11T14:00:01.999872", "MEAN_MOTION": 15.5490503, "ECCENTRICITY": 0.00010373, "INCLINATION": 53.16, "RA_OF_ASC_NODE": 192.7658, "ARG_OF_PERICENTER": 86.8572, "MEAN_ANOMALY": 25.1794, "EPHEMERIS_TYPE": 0, "CLASSIFICATION_TYPE": "U", "NORAD_CAT_ID": 66622, "ELEMENT_SET_NO": 999, "REV_AT_EPOCH": 405, "BSTAR": -0.033437491, "MEAN_MOTION_DOT": -0.02031315, "MEAN_MOTION_DDOT": 0}, "tle": {"line1": "1 66622U 25271F   25345.58335648 -.02031315  00000+0 -33437-1 0  9997", "line2": "2 66622  53.1600 192.7658 0001037  86.8572  25.1794 15.54905030  4053"}}, "geometry": {"type": "Point", "coordinates": [-176.30334410810545, -9.641202389608022]}}, {"type": "Feature", "properties": {"norad_id": 66623, "name": "STARLINK-35920", "group": "last-30-days", "lat": -6.591653475975268, "lon": -173.96515192225797, "alt_km": 409.04490506213915, "timestamp": "2025-12-11T22:43:46.024445+00:00", "meta": {"OBJECT_NAME": "STARLINK-35920", "OBJECT_ID": "2025-271G", "EPOCH": "2025-12-11T14:00:01.999872", "MEAN_MOTION": 15.54901451, "ECCENTRICITY": 9.179e-05, "INCLINATION": 53.1602, "RA_OF_ASC_NODE": 192.7569, "ARG_OF_PERICENTER": 104.8001, "MEAN_ANOMALY": 11.0721, "EPHEMERIS_TYPE": 0, "CLASSIFICATION_TYPE": "U", "NORAD_CAT_ID": 66623, "ELEMENT_SET_NO": 999, "REV_AT_EPOCH": 405, "BSTAR": -0.033359869, "MEAN_MOTION_DOT": -0.0202679, "MEAN_MOTION_DDOT": 0}, "tle": {"line1": "1 66623U 25271G   25345.58335648 -.02026790  00000+0 -33360-1 0  9994", "line2": "2 66623  53.1602 192.7569 0000917 104.8001  11.0721 15.54901451  4058"}}, "geometry": {"type": "Point", "coordinates": [-173.96515192225797, -6.591653475975268]}}, {"type": "Feature", "properties": {"norad_id": 66624, "name": "STARLINK-35927", "group": "last-30-days", "lat": -8.119125249601503, "lon": -175.1302456641458, "alt_km": 409.306954917879, "timestamp": "2025-12-11T22:43:46.024457+00:00", "meta": {"OBJECT_NAME": "STARLINK-35927", "OBJECT_ID": "2025-271H", "EPOCH": "2025-12-11T14:00:01.999872", "MEAN_MOTION": 15.54900516, "ECCENTRICITY": 0.00010456, "INCLINATION": 53.16, "RA_OF_ASC_NODE": 192.7617, "ARG_OF_PERICENTER": 97.6355, "MEAN_ANOMALY": 16.319, "EPHEMERIS_TYPE": 0, "CLASSIFICATION_TYPE": "U", "NORAD_CAT_ID": 66624, "ELEMENT_SET_NO": 999, "REV_AT_EPOCH": 405, "BSTAR": -0.033318762, "MEAN_MOTION_DOT": -0.0202457, "MEAN_MOTION_DDOT": 0}, "tle": {"line1": "1 66624U 25271H   25345.58335648 -.02024570  00000+0 -33319-1 0  9993", "line2": "2 66624  53.1600 192.7617 0001045  97.6355  16.3190 15.54900516  4054"}}, "geometry": {"type": "Point", "coordinates": [-175.1302456641458, -8.119125249601503]}}, {"type": "Feature", "properties": {"norad_id": 66625, "name": "STARLINK-35929", "group": "last-30-days", "lat": -5.0632613088059895, "lon": -172.80765728439454, "alt_km": 408.84938244010664, "timestamp": "2025-12-11T22:43:46.024468+00:00", "meta": {"OBJECT_NAME": "STARLINK-35929", "OBJECT_ID": "2025-271J", "EPOCH": "2025-12-11T14:00:01.999872", "MEAN_MOTION": 15.54899048, "ECCENTRICITY": 9.005e-05, "INCLINATION": 53.1602, "RA_OF_ASC_NODE": 192.7531, "ARG_OF_PERICENTER": 106.2732, "MEAN_ANOMALY": 11.5151, "EPHEMERIS_TYPE": 0, "CLASSIFICATION_TYPE": "U", "NORAD_CAT_ID": 66625, "ELEMENT_SET_NO": 999, "REV_AT_EPOCH": 405, "BSTAR": -0.03326967, "MEAN_MOTION_DOT": -0.02021719, "MEAN_MOTION_DDOT": 0}, "tle": {"line1": "1 66625U 25271J   25345.58335648 -.02021719  00000+0 -33270-1 0  9992", "line2": "2 66625  53.1602 192.7531 0000900 106.2732  11.5151 15.54899048  4058"}}, "geometry": {"type": "Point", "coordinates": [-172.80765728439454, -5.0632613088059895]}}, {"type": "Feature", "properties": {"norad_id": 66626, "name": "STARLINK-35902", "group": "last-30-days", "lat": -3.533601513253109, "lon": -171.6564672623702, "alt_km": 408.7394018617324, "timestamp": "2025-12-11T22:43:46.024481+00:00", "meta": {"OBJECT_NAME": "STARLINK-35902", "OBJECT_ID": "2025-271K", "EPOCH": "2025-12-11T14:00:01.999872", "MEAN_MOTION": 15.54898675, "ECCENTRICITY": 0.00010661, "INCLINATION": 53.16, "RA_OF_ASC_NODE": 192.7491, "ARG_OF_PERICENTER": 102.0301, "MEAN_ANOMALY": 17.6748, "EPHEMERIS_TYPE": 0, "CLASSIFICATION_TYPE": "U", "NORAD_CAT_ID": 66626, "ELEMENT_SET_NO": 999, "REV_AT_EPOCH": 405, "BSTAR": -0.033266218, "MEAN_MOTION_DOT": -0.02021604, "MEAN_MOTION_DDOT": 0}, "tle": {"line1": "1 66626U 25271K   25345.58335648 -.02021604  00000+0 -33266-1 0  9991", "line2": "2 66626  53.1600 192.7491 0001066 102.0301  17.6748 15.54898675  4056"}}, "geometry": {"type": "Point", "coordinates": [-171.6564672623702, -3.533601513253109]}}, {"type": "Feature", "properties": {"norad_id": 66627, "name": "STARLINK-35904", "group": "last-30-days", "lat": -1.9981961492904086, "lon": -170.50531606325896, "alt_km": 408.3663249546671, "timestamp": "2025-12-11T22:43:46.024491+00:00", "meta": {"OBJECT_NAME": "STARLINK-35904", "OBJECT_ID": "2025-271L", "EPOCH": "2025-12-11T14:00:01.999872", "MEAN_MOTION": 15.5489906, "ECCENTRICITY": 9.23e-05, "INCLINATION": 53.1599, "RA_OF_ASC_NODE": 192.7456, "ARG_OF_PERICENTER": 98.0738, "MEAN_ANOMALY": 23.5495, "EPHEMERIS_TYPE": 0, "CLASSIFICATION_TYPE": "U", "NORAD_CAT_ID": 66627, "ELEMENT_SET_NO": 999, "REV_AT_EPOCH": 389, "BSTAR": -0.033261132, "MEAN_MOTION_DOT": -0.0202127, "MEAN_MOTION_DDOT": 0}, "tle": {"line1": "1 66627U 25271L   25345.58335648 -.02021270  00000+0 -33261-1 0  9996", "line2": "2 66627  53.1599 192.7456 0000923  98.0738  23.5495 15.54899060  3899"}}, "geometry": {"type": "Point", "coordinates": [-170.50531606325896, -1.9981961492904086]}}, {"type": "Feature", "properties": {"norad_id": 66628, "name": "STARLINK-35862", "group": "last-30-days", "lat": -0.46586711283728705, "lon": -169.35971912637936, "alt_km": 408.1512968525876, "timestamp": "2025-12-11T22:43:46.024501+00:00", "meta": {"OBJECT_NAME": "STARLINK-35862", "OBJECT_ID": "2025-271M", "EPOCH": "2025-12-11T14:00:01.999872", "MEAN_MOTION": 15.54898583, "ECCENTRICITY": 0.00011417, "INCLINATION": 53.1599, "RA_OF_ASC_NODE": 192.7416, "ARG_OF_PERICENTER": 87.6533, "MEAN_ANOMALY": 35.8885, "EPHEMERIS_TYPE": 0, "CLASSIFICATION_TYPE": "U", "NORAD_CAT_ID": 66628, "ELEMENT_SET_NO": 999, "REV_AT_EPOCH": 405, "BSTAR": -0.033274955, "MEAN_MOTION_DOT": -0.02022118, "MEAN_MOTION_DDOT": 0}, "tle": {"line1": "1 66628U 25271M   25345.58335648 -.02022118  00000+0 -33275-1 0  9994", "line2": "2 66628  53.1599 192.7416 0001141  87.6533  35.8885 15.54898583  4053"}}, "geometry": {"type": "Point", "coordinates": [-169.35971912637936, -0.46586711283728705]}}]}